OBJECT_NAME,OBJECT_ID,EPOCH,MEAN_MOTION,ECCENTRICITY,INCLINATION,RA_OF_ASC_NODE,ARG_OF_PERICENTER,MEAN_ANOMALY,EPHEMERIS_TYPE,CLASSIFICATION_TYPE,NORAD_CAT_ID,ELEMENT_SET_NO,REV_AT_EPOCH,BSTAR,MEAN_MOTION_DOT,MEAN_MOTION_DDOT
STARLINK-30570,2023-160W,2024-02-07T20:37:01.341984,15.02533078,.0001145,42.9995,254.0098,261.3020,98.7692,0,U,58095,999,1847,.7666E-3,.10166E-3,0
STARLINK-30594,2023-161A,2024-02-07T21:05:59.886240,15.18704961,.0001755,53.0532,93.9716,104.9301,255.1888,0,U,58097,999,1802,.16078E-5,-.285E-5,0
STARLINK-30614,2023-161B,2024-02-07T21:05:25.947456,15.18725278,.0002029,53.0532,93.9722,76.9625,283.1596,0,U,58098,999,1802,.40236E-3,.8148E-4,0
STARLINK-30607,2023-161C,2024-02-07T12:10:41.453472,15.18718565,.0001605,53.0548,87.3242,114.8723,245.2439,0,U,58099,999,1808,.96398E-4,.1708E-4,0
STARLINK-30600,2023-161D,2024-02-07T20:58:41.065824,15.18715931,.0002163,53.0520,93.9453,73.8023,286.3209,0,U,58100,999,1802,.9356E-4,.1648E-4,0
STARLINK-30605,2023-161E,2024-02-07T20:51:23.600160,15.18717715,.0002061,53.0521,93.9055,87.3683,272.7548,0,U,58101,999,1802,.50908E-3,.10394E-3,0
STARLINK-30592,2023-161F,2024-02-07T20:50:49.749504,15.18716500,.000186,53.0527,93.9070,81.1567,278.9638,0,U,58102,999,1802,.21116E-3,.4121E-4,0
STARLINK-30589,2023-161G,2024-02-07T20:44:04.814304,15.18716767,.0001894,53.0530,93.8786,82.7942,277.3268,0,U,58103,999,1802,.15149E-3,.2866E-4,0
STARLINK-30617,2023-161H,2024-02-07T20:43:31.573632,15.18716739,.0001847,53.0525,93.8774,91.1441,268.9765,0,U,58104,999,1802,.8108E-4,.1386E-4,0
STARLINK-30616,2023-161J,2024-02-07T20:36:48.001824,15.18703931,.00017,53.0542,93.8479,86.0733,274.0455,0,U,58105,999,1802,-.20433E-5,-.361E-5,0
STARLINK-30612,2023-161K,2024-02-07T20:36:13.453920,15.18708977,.0001575,53.0552,93.8415,85.9300,274.1874,0,U,58106,999,1802,.54245E-4,.821E-5,0
STARLINK-30596,2023-161P,2024-02-07T20:21:37.638720,15.18717276,.000147,53.0551,93.7809,92.8984,267.2178,0,U,58110,999,1802,.8351E-4,.1437E-4,0
STARLINK-30353,2023-161S,2024-02-07T20:07:35.221440,15.18716375,.0001754,53.0577,93.7201,89.5478,270.5717,0,U,58113,999,1802,.65835E-4,.1065E-4,0
STARLINK-30580,2023-161U,2024-02-07T10:31:43.090752,15.18710121,.000163,53.0550,95.4889,97.6294,262.4886,0,U,58115,999,1796,-.25788E-4,-.86E-5,0
STARLINK-30601,2023-161W,2024-02-07T10:24:24.195168,15.18719855,.0001757,53.0552,95.4597,87.6223,272.4972,0,U,58117,999,1796,.14754E-3,.2783E-4,0
STARLINK-30799,2023-162D,2024-02-07T21:30:15.590592,15.02528401,.0001052,43.0017,307.2988,271.0926,88.9796,0,U,58121,999,1785,.11454E-2,.15299E-3,0
STARLINK-30759,2023-162E,2024-02-07T11:23:55.507200,15.02539995,.0001046,43.0004,309.3107,269.5906,90.4817,0,U,58122,999,1780,.11806E-2,.15782E-3,0
STARLINK-30754,2023-162G,2024-02-07T18:13:59.652480,15.02528817,.0002065,43.0034,307.9918,232.2525,127.8131,0,U,58124,999,1204,.39644E-3,.5154E-4,0
