STARLINK-30570          
1 58095U 23160W   24038.85904331  .00010166  00000+0  76660-3 0  9990
2 58095  42.9995 254.0098 0001145 261.3020  98.7692 15.02533078 18475
STARLINK-30594          
1 58097U 23161A   24038.87916535 -.00000285  00000+0  16078-5 0  9995
2 58097  53.0532  93.9716 0001755 104.9301 255.1888 15.18704961 17894
STARLINK-30614          
1 58098U 23161B   24038.87877254  .00008148  00000+0  40236-3 0  9996
2 58098  53.0532  93.9722 0002029  76.9625 283.1596 15.18725278 17895
STARLINK-30607          
1 58099U 23161C   24038.50742423  .00001708  00000+0  96398-4 0  9992
2 58099  53.0548  87.3242 0001605 114.8723 245.2439 15.18718565 18085
STARLINK-30600          
1 58100U 23161D   24038.87408641  .00001648  00000+0  93560-4 0  9997
2 58100  53.0520  93.9453 0002163  73.8023 286.3209 15.18715931 17895
STARLINK-30605          
1 58101U 23161E   24038.86902315  .00010394  00000+0  50908-3 0  9990
2 58101  53.0521  93.9055 0002061  87.3683 272.7548 15.18717715 18027
STARLINK-30592          
1 58102U 23161F   24038.86863136  .00004121  00000+0  21116-3 0  9998
2 58102  53.0527  93.9070 0001860  81.1567 278.9638 15.18716500 17893
STARLINK-30589          
1 58103U 23161G   24038.86394461  .00002866  00000+0  15149-3 0  9992
2 58103  53.0530  93.8786 0001894  82.7942 277.3268 15.18716767 17899
STARLINK-30617          
1 58104U 23161H   24038.86355988  .00001386  00000+0  81080-4 0  9998
2 58104  53.0525  93.8774 0001847  91.1441 268.9765 15.18716739 17894
STARLINK-30616          
1 58105U 23161J   24038.85888891 -.00000361  00000+0 -20433-5 0  9992
2 58105  53.0542  93.8479 0001700  86.0733 274.0455 15.18703931 17895
STARLINK-30612          
1 58106U 23161K   24038.85848905  .00000821  00000+0  54245-4 0  9991
2 58106  53.0552  93.8415 0001575  85.9300 274.1874 15.18708977 18022
STARLINK-30596          
1 58110U 23161P   24038.84835230  .00001437  00000+0  83510-4 0  9993
2 58110  53.0551  93.7809 0001470  92.8984 267.2178 15.18717276 18023
STARLINK-30353          
1 58113U 23161S   24038.83860210  .00001065  00000+0  65835-4 0  9998
2 58113  53.0577  93.7201 0001754  89.5478 270.5717 15.18716375 18021
STARLINK-30580          
1 58115U 23161U   24038.43869318 -.00000860  00000+0 -25788-4 0  9991
2 58115  53.0550  95.4889 0001630  97.6294 262.4886 15.18710121 17966
STARLINK-30601          
1 58117U 23161W   24038.43361337  .00002783  00000+0  14754-3 0  9995
2 58117  53.0552  95.4597 0001757  87.6223 272.4972 15.18719855 17967
STARLINK-30799          
1 58121U 23162D   24038.89601378  .00015299  00000+0  11454-2 0  9992
2 58121  43.0017 307.2988 0001052 271.0926  88.9796 15.02528401 17852
STARLINK-30759          
1 58122U 23162E   24038.47494800  .00015782  00000+0  11806-2 0  9995
2 58122  43.0004 309.3107 0001046 269.5906  90.4817 15.02539995 17805
STARLINK-30754          
1 58124U 23162G   24038.75971820  .00005154  00000+0  39644-3 0  9993
2 58124  43.0034 307.9918 0002065 232.2525 127.8131 15.02528817 12046
